{
  "type": "FeatureCollection",
  "features": [
    {
      "type": "Feature",
      "properties": {
        "norad_id": 39773,
        "name": "EUTELSAT 3B",
        "group": "eutelsat",
        "lat": 0.07858476206146581,
        "lon": 64.93582098104658,
        "alt_km": 35804.7877640899,
        "timestamp": "2025-12-11T22:43:46.943493+00:00",
        "meta_object_name": "EUTELSAT 3B",
        "meta_object_id": "2014-030A",
        "meta_epoch": "2025-12-10T23:49:46.953984",
        "meta_mean_motion": 1.00272013,
        "meta_eccentricity": 0.00046411,
        "meta_inclination": 0.0617,
        "meta_ra_of_asc_node": 345.4375,
        "meta_arg_of_pericenter": 243.1309,
        "meta_mean_anomaly": 211.9454,
        "meta_ephemeris_type": 0,
        "meta_classification_type": "U",
        "meta_norad_cat_id": 39773,
        "meta_element_set_no": 999,
        "meta_rev_at_epoch": 4218,
        "meta_bstar": 0,
        "meta_mean_motion_dot": 2.5e-07,
        "meta_mean_motion_ddot": 0,
        "tle_line1": "1 39773U 14030A   25344.99290456  .00000025  00000+0  00000+0 0  9994",
        "tle_line2": "2 39773   0.0617 345.4375 0004641 243.1309 211.9454  1.00272013 42180"
      },
      "geometry": {
        "type": "Point",
        "coordinates": [
          64.93582098104658,
          0.07858476206146581
        ]
      }
    },
    {
      "type": "Feature",
      "properties": {
        "norad_id": 40425,
        "name": "EUTELSAT 115 WEST B",
        "group": "eutelsat",
        "lat": 0.004173728693310476,
        "lon": -53.06964199606036,
        "alt_km": 35787.87386006639,
        "timestamp": "2025-12-11T22:43:46.943508+00:00",
        "meta_object_name": "EUTELSAT 115 WEST B",
        "meta_object_id": "2015-010B",
        "meta_epoch": "2025-12-10T23:16:05.182752",
        "meta_mean_motion": 1.00269045,
        "meta_eccentricity": 3.113e-05,
        "meta_inclination": 0.0085,
        "meta_ra_of_asc_node": 151.2991,
        "meta_arg_of_pericenter": 11.6564,
        "meta_mean_anomaly": 151.0992,
        "meta_ephemeris_type": 0,
        "meta_classification_type": "U",
        "meta_norad_cat_id": 40425,
        "meta_element_set_no": 999,
        "meta_rev_at_epoch": 3950,
        "meta_bstar": 0,
        "meta_mean_motion_dot": -1.9e-07,
        "meta_mean_motion_ddot": 0,
        "tle_line1": "1 40425U 15010B   25344.96950443 -.00000019  00000+0  00000+0 0  9999",
        "tle_line2": "2 40425   0.0085 151.2991 0000311  11.6564 151.0992  1.00269045 39507"
      },
      "geometry": {
        "type": "Point",
        "coordinates": [
          -53.06964199606036,
          0.004173728693310476
        ]
      }
    },
    {
      "type": "Feature",
      "properties": {
        "norad_id": 40875,
        "name": "EUTELSAT 8 WEST B",
        "group": "eutelsat",
        "lat": 0.065571171153544,
        "lon": 53.87883928318963,
        "alt_km": 35801.87272679332,
        "timestamp": "2025-12-11T22:43:46.943521+00:00",
        "meta_object_name": "EUTELSAT 8 WEST B",
        "meta_object_id": "2015-039B",
        "meta_epoch": "2025-12-11T13:28:07.807872",
        "meta_mean_motion": 1.002716,
        "meta_eccentricity": 0.00041988,
        "meta_inclination": 0.065,
        "meta_ra_of_asc_node": 5.4602,
        "meta_arg_of_pericenter": 256.0204,
        "meta_mean_anomaly": 13.0875,
        "meta_ephemeris_type": 0,
        "meta_classification_type": "U",
        "meta_norad_cat_id": 40875,
        "meta_element_set_no": 999,
        "meta_rev_at_epoch": 3777,
        "meta_bstar": 0,
        "meta_mean_motion_dot": -5.8e-07,
        "meta_mean_motion_ddot": 0,
        "tle_line1": "1 40875U 15039B   25345.56120148 -.00000058  00000+0  00000+0 0  9990",
        "tle_line2": "2 40875   0.0650   5.4602 0004198 256.0204  13.0875  1.00271600 37770"
      },
      "geometry": {
        "type": "Point",
        "coordinates": [
          53.87883928318963,
          0.065571171153544
        ]
      }
    },
    {
      "type": "Feature",
      "properties": {
        "norad_id": 41310,
        "name": "EUTELSAT 9B",
        "group": "eutelsat",
        "lat": 0.023730905724161897,
        "lon": 70.87965814769066,
        "alt_km": 35805.24747697877,
        "timestamp": "2025-12-11T22:43:46.943539+00:00",
        "meta_object_name": "EUTELSAT 9B",
        "meta_object_id": "2016-005A",
        "meta_epoch": "2025-12-11T04:59:33.728928",
        "meta_mean_motion": 1.00273032,
        "meta_eccentricity": 0.00047985,
        "meta_inclination": 0.0412,
        "meta_ra_of_asc_node": 60.4981,
        "meta_arg_of_pericenter": 205.8314,
        "meta_mean_anomaly": 257.753,
        "meta_ephemeris_type": 0,
        "meta_classification_type": "U",
        "meta_norad_cat_id": 41310,
        "meta_element_set_no": 999,
        "meta_rev_at_epoch": 3623,
        "meta_bstar": 0,
        "meta_mean_motion_dot": 6.8e-07,
        "meta_mean_motion_ddot": 0,
        "tle_line1": "1 41310U 16005A   25345.20802927  .00000068  00000+0  00000+0 0  9992",
        "tle_line2": "2 41310   0.0412  60.4981 0004798 205.8314 257.7530  1.00273032 36238"
      },
      "geometry": {
        "type": "Point",
        "coordinates": [
          70.87965814769066,
          0.023730905724161897
        ]
      }
    },
    {
      "type": "Feature",
      "properties": {
        "norad_id": 41382,
        "name": "EUTELSAT 65 WEST A",
        "group": "eutelsat",
        "lat": -0.008427944102213836,
        "lon": -3.3282214977290705,
        "alt_km": 35785.85784250498,
        "timestamp": "2025-12-11T22:43:46.943559+00:00",
        "meta_object_name": "EUTELSAT 65 WEST A",
        "meta_object_id": "2016-014A",
        "meta_epoch": "2025-12-11T13:12:01.849824",
        "meta_mean_motion": 1.00272242,
        "meta_eccentricity": 0.00025609,
        "meta_inclination": 0.0513,
        "meta_ra_of_asc_node": 11.3121,
        "meta_arg_of_pericenter": 256.1627,
        "meta_mean_anomaly": 305.8425,
        "meta_ephemeris_type": 0,
        "meta_classification_type": "U",
        "meta_norad_cat_id": 41382,
        "meta_element_set_no": 999,
        "meta_rev_at_epoch": 3565,
        "meta_bstar": 0,
        "meta_mean_motion_dot": -2.69e-06,
        "meta_mean_motion_ddot": 0,
        "tle_line1": "1 41382U 16014A   25345.55002141 -.00000269  00000+0  00000+0 0  9993",
        "tle_line2": "2 41382   0.0513  11.3121 0002560 256.1627 305.8425  1.00272242 35656"
      },
      "geometry": {
        "type": "Point",
        "coordinates": [
          -3.3282214977290705,
          -0.008427944102213836
        ]
      }
    },
    {
      "type": "Feature",
      "properties": {
        "norad_id": 41589,
        "name": "EUTELSAT 117 WEST B",
        "group": "eutelsat",
        "lat": 0.01583017036970864,
        "lon": -55.15366948204725,
        "alt_km": 35787.92894394935,
        "timestamp": "2025-12-11T22:43:46.943573+00:00",
        "meta_object_name": "EUTELSAT 117 WEST B",
        "meta_object_id": "2016-038B",
        "meta_epoch": "2025-12-10T23:15:27.743040",
        "meta_mean_motion": 1.00269754,
        "meta_eccentricity": 3.232e-05,
        "meta_inclination": 0.0411,
        "meta_ra_of_asc_node": 158.7318,
        "meta_arg_of_pericenter": 311.552,
        "meta_mean_anomaly": 201.5309,
        "meta_ephemeris_type": 0,
        "meta_classification_type": "U",
        "meta_norad_cat_id": 41589,
        "meta_element_set_no": 999,
        "meta_rev_at_epoch": 3477,
        "meta_bstar": 0,
        "meta_mean_motion_dot": -6e-08,
        "meta_mean_motion_ddot": 0,
        "tle_line1": "1 41589U 16038B   25344.96907110 -.00000006  00000+0  00000+0 0  9991",
        "tle_line2": "2 41589   0.0411 158.7318 0000323 311.5520 201.5309  1.00269754 34778"
      },
      "geometry": {
        "type": "Point",
        "coordinates": [
          -55.15366948204725,
          0.01583017036970864
        ]
      }
    },
    {
      "type": "Feature",
      "properties": {
        "norad_id": 42741,
        "name": "EUTELSAT 172B",
        "group": "eutelsat",
        "lat": -0.01262127128941137,
        "lon": -126.16762867546382,
        "alt_km": 35786.50394696258,
        "timestamp": "2025-12-11T22:43:46.943586+00:00",
        "meta_object_name": "EUTELSAT 172B",
        "meta_object_id": "2017-029B",
        "meta_epoch": "2025-12-11T14:19:47.858880",
        "meta_mean_motion": 1.00269732,
        "meta_eccentricity": 5.32e-06,
        "meta_inclination": 0.0312,
        "meta_ra_of_asc_node": 156.9432,
        "meta_arg_of_pericenter": 127.6735,
        "meta_mean_anomaly": 182.8823,
        "meta_ephemeris_type": 0,
        "meta_classification_type": "U",
        "meta_norad_cat_id": 42741,
        "meta_element_set_no": 999,
        "meta_rev_at_epoch": 3185,
        "meta_bstar": 0,
        "meta_mean_motion_dot": 1e-08,
        "meta_mean_motion_ddot": 0,
        "tle_line1": "1 42741U 17029B   25345.59708170  .00000001  00000+0  00000+0 0  9992",
        "tle_line2": "2 42741   0.0312 156.9432 0000053 127.6735 182.8823  1.00269732 31854"
      },
      "geometry": {
        "type": "Point",
        "coordinates": [
          -126.16762867546382,
          -0.01262127128941137
        ]
      }
    }
  ]
}